[
  {
    "OBJECT_NAME": "METEOSAT-10 (MSG-3)",
    "OBJECT_ID": "2012-035B",
    "EPOCH": "2025-04-16T17:58:02.887392",
    "MEAN_MOTION": 1.00264742,
    "ECCENTRICITY": 8.63e-5,
    "INCLINATION": 3.6639,
    "RA_OF_ASC_NODE": 62.0398,
    "ARG_OF_PERICENTER": 338.6915,
    "MEAN_ANOMALY": 74.4916,
    "EPHEMERIS_TYPE": 0,
    "CLASSIFICATION_TYPE": "U",
    "NORAD_CAT_ID": 38552,
    "ELEMENT_SET_NO": 999,
    "REV_AT_EPOCH": 4658,
    "BSTAR": 0,
    "MEAN_MOTION_DOT": 8.0e-8,
    "MEAN_MOTION_DDOT": 0
  },
  {
    "OBJECT_NAME": "METOP-B",
    "OBJECT_ID": "2012-049A",
    "EPOCH": "2025-04-16T21:38:50.133696",
    "MEAN_MOTION": 14.21480752,
    "ECCENTRICITY": 0.0001807,
    "INCLINATION": 98.5824,
    "RA_OF_ASC_NODE": 162.6148,
    "ARG_OF_PERICENTER": 120.1737,
    "MEAN_ANOMALY": 239.962,
    "EPHEMERIS_TYPE": 0,
    "CLASSIFICATION_TYPE": "U",
    "NORAD_CAT_ID": 38771,
    "ELEMENT_SET_NO": 999,
    "REV_AT_EPOCH": 65270,
    "BSTAR": 0.00025029,
    "MEAN_MOTION_DOT": 5.05e-6,
    "MEAN_MOTION_DDOT": 0
  },
  {
    "OBJECT_NAME": "INSAT-3D",
    "OBJECT_ID": "2013-038B",
    "EPOCH": "2025-04-16T13:26:21.401952",
    "MEAN_MOTION": 1.00266951,
    "ECCENTRICITY": 0.0001411,
    "INCLINATION": 0.8209,
    "RA_OF_ASC_NODE": 88.2702,
    "ARG_OF_PERICENTER": 272.6818,
    "MEAN_ANOMALY": 175.0259,
    "EPHEMERIS_TYPE": 0,
    "CLASSIFICATION_TYPE": "U",
    "NORAD_CAT_ID": 39216,
    "ELEMENT_SET_NO": 999,
    "REV_AT_EPOCH": 4280,
    "BSTAR": 0,
    "MEAN_MOTION_DOT": -3.29e-6,
    "MEAN_MOTION_DDOT": 0
  },
  {
    "OBJECT_NAME": "FENGYUN 3C",
    "OBJECT_ID": "2013-052A",
    "EPOCH": "2025-04-16T22:20:31.081920",
    "MEAN_MOTION": 14.15607363,
    "ECCENTRICITY": 0.0014912,
    "INCLINATION": 98.4529,
    "RA_OF_ASC_NODE": 96.6619,
    "ARG_OF_PERICENTER": 166.2926,
    "MEAN_ANOMALY": 193.8657,
    "EPHEMERIS_TYPE": 0,
    "CLASSIFICATION_TYPE": "U",
    "NORAD_CAT_ID": 39260,
    "ELEMENT_SET_NO": 999,
    "REV_AT_EPOCH": 59832,
    "BSTAR": 0.00023338,
    "MEAN_MOTION_DOT": 4.16e-6,
    "MEAN_MOTION_DDOT": 0
  },
  {
    "OBJECT_NAME": "METEOR-M 2",
    "OBJECT_ID": "2014-037A",
    "EPOCH": "2025-04-16T21:44:52.722528",
    "MEAN_MOTION": 14.21274429,
    "ECCENTRICITY": 0.0005491,
    "INCLINATION": 98.466,
    "RA_OF_ASC_NODE": 94.044,
    "ARG_OF_PERICENTER": 183.372,
    "MEAN_ANOMALY": 176.7422,
    "EPHEMERIS_TYPE": 0,
    "CLASSIFICATION_TYPE": "U",
    "NORAD_CAT_ID": 40069,
    "ELEMENT_SET_NO": 999,
    "REV_AT_EPOCH": 55876,
    "BSTAR": 0.00027225,
    "MEAN_MOTION_DOT": 5.52e-6,
    "MEAN_MOTION_DDOT": 0
  },
  {
    "OBJECT_NAME": "HIMAWARI-8",
    "OBJECT_ID": "2014-060A",
    "EPOCH": "2025-04-16T20:20:47.994144",
    "MEAN_MOTION": 1.00270807,
    "ECCENTRICITY": 0.0001129,
    "INCLINATION": 0.0121,
    "RA_OF_ASC_NODE": 208.9768,
    "ARG_OF_PERICENTER": 191.6093,
    "MEAN_ANOMALY": 250.4953,
    "EPHEMERIS_TYPE": 0,
    "CLASSIFICATION_TYPE": "U",
    "NORAD_CAT_ID": 40267,
    "ELEMENT_SET_NO": 999,
    "REV_AT_EPOCH": 3847,
    "BSTAR": 0,
    "MEAN_MOTION_DOT": -2.66e-6,
    "MEAN_MOTION_DDOT": 0
  },
  {
    "OBJECT_NAME": "FENGYUN 2G",
    "OBJECT_ID": "2014-090A",
    "EPOCH": "2025-04-16T22:12:26.193888",
    "MEAN_MOTION": 1.00265674,
    "ECCENTRICITY": 0.0002024,
    "INCLINATION": 4.5559,
    "RA_OF_ASC_NODE": 77.9714,
    "ARG_OF_PERICENTER": 108.5801,
    "MEAN_ANOMALY": 91.1812,
    "EPHEMERIS_TYPE": 0,
    "CLASSIFICATION_TYPE": "U",
    "NORAD_CAT_ID": 40367,
    "ELEMENT_SET_NO": 999,
    "REV_AT_EPOCH": 3772,
    "BSTAR": 0,
    "MEAN_MOTION_DOT": -2.88e-6,
    "MEAN_MOTION_DDOT": 0
  },
  {
    "OBJECT_NAME": "METEOSAT-11 (MSG-4)",
    "OBJECT_ID": "2015-034A",
    "EPOCH": "2025-04-16T21:26:13.873632",
    "MEAN_MOTION": 1.00278835,
    "ECCENTRICITY": 8.51e-5,
    "INCLINATION": 2.1364,
    "RA_OF_ASC_NODE": 72.2461,
    "ARG_OF_PERICENTER": 321.8812,
    "MEAN_ANOMALY": 142.146,
    "EPHEMERIS_TYPE": 0,
    "CLASSIFICATION_TYPE": "U",
    "NORAD_CAT_ID": 40732,
    "ELEMENT_SET_NO": 999,
    "REV_AT_EPOCH": 294,
    "BSTAR": 0,
    "MEAN_MOTION_DOT": 7.5e-7,
    "MEAN_MOTION_DDOT": 0
  },
  {
    "OBJECT_NAME": "ELEKTRO-L 2",
    "OBJECT_ID": "2015-074A",
    "EPOCH": "2025-04-16T17:53:40.161408",
    "MEAN_MOTION": 1.00273085,
    "ECCENTRICITY": 0.0002055,
    "INCLINATION": 5.616,
    "RA_OF_ASC_NODE": 75.7577,
    "ARG_OF_PERICENTER": 242.0366,
    "MEAN_ANOMALY": 141.2679,
    "EPHEMERIS_TYPE": 0,
    "CLASSIFICATION_TYPE": "U",
    "NORAD_CAT_ID": 41105,
    "ELEMENT_SET_NO": 999,
    "REV_AT_EPOCH": 3423,
    "BSTAR": 0,
    "MEAN_MOTION_DOT": -1.04e-6,
    "MEAN_MOTION_DDOT": 0
  },
  {
    "OBJECT_NAME": "INSAT-3DR",
    "OBJECT_ID": "2016-054A",
    "EPOCH": "2025-04-16T16:36:05.218848",
    "MEAN_MOTION": 1.00273339,
    "ECCENTRICITY": 0.0010771,
    "INCLINATION": 0.1326,
    "RA_OF_ASC_NODE": 88.8849,
    "ARG_OF_PERICENTER": 188.0154,
    "MEAN_ANOMALY": 251.1923,
    "EPHEMERIS_TYPE": 0,
    "CLASSIFICATION_TYPE": "U",
    "NORAD_CAT_ID": 41752,
    "ELEMENT_SET_NO": 999,
    "REV_AT_EPOCH": 3154,
    "BSTAR": 0,
    "MEAN_MOTION_DOT": -6.7e-7,
    "MEAN_MOTION_DDOT": 0
  },
  {
    "OBJECT_NAME": "HIMAWARI-9",
    "OBJECT_ID": "2016-064A",
    "EPOCH": "2025-04-16T21:54:21.722688",
    "MEAN_MOTION": 1.00272099,
    "ECCENTRICITY": 0.0001372,
    "INCLINATION": 0.0271,
    "RA_OF_ASC_NODE": 123.9594,
    "ARG_OF_PERICENTER": 295.3071,
    "MEAN_ANOMALY": 255.3984,
    "EPHEMERIS_TYPE": 0,
    "CLASSIFICATION_TYPE": "U",
    "NORAD_CAT_ID": 41836,
    "ELEMENT_SET_NO": 999,
    "REV_AT_EPOCH": 3102,
    "BSTAR": 0,
    "MEAN_MOTION_DOT": -2.64e-6,
    "MEAN_MOTION_DDOT": 0
  },
  {
    "OBJECT_NAME": "GOES 16",
    "OBJECT_ID": "2016-071A",
    "EPOCH": "2025-04-16T21:01:05.074752",
    "MEAN_MOTION": 1.00132862,
    "ECCENTRICITY": 8.89e-5,
    "INCLINATION": 0.0598,
    "RA_OF_ASC_NODE": 281.3915,
    "ARG_OF_PERICENTER": 172.5776,
    "MEAN_ANOMALY": 348.1182,
    "EPHEMERIS_TYPE": 0,
    "CLASSIFICATION_TYPE": "U",
    "NORAD_CAT_ID": 41866,
    "ELEMENT_SET_NO": 999,
    "REV_AT_EPOCH": 3082,
    "BSTAR": 0,
    "MEAN_MOTION_DOT": -2.1e-6,
    "MEAN_MOTION_DDOT": 0
  },
  {
    "OBJECT_NAME": "CYGFM05",
    "OBJECT_ID": "2016-078A",
    "EPOCH": "2025-04-16T14:01:31.685664",
    "MEAN_MOTION": 15.38977894,
    "ECCENTRICITY": 0.0009206,
    "INCLINATION": 34.9599,
    "RA_OF_ASC_NODE": 164.1374,
    "ARG_OF_PERICENTER": 110.988,
    "MEAN_ANOMALY": 249.1824,
    "EPHEMERIS_TYPE": 0,
    "CLASSIFICATION_TYPE": "U",
    "NORAD_CAT_ID": 41884,
    "ELEMENT_SET_NO": 999,
    "REV_AT_EPOCH": 46265,
    "BSTAR": 0.00053385,
    "MEAN_MOTION_DOT": 0.00021227,
    "MEAN_MOTION_DDOT": 0
  },
  {
    "OBJECT_NAME": "CYGFM04",
    "OBJECT_ID": "2016-078B",
    "EPOCH": "2025-04-16T19:16:26.116320",
    "MEAN_MOTION": 15.40611561,
    "ECCENTRICITY": 0.0008554,
    "INCLINATION": 34.9349,
    "RA_OF_ASC_NODE": 142.905,
    "ARG_OF_PERICENTER": 139.5713,
    "MEAN_ANOMALY": 220.5643,
    "EPHEMERIS_TYPE": 0,
    "CLASSIFICATION_TYPE": "U",
    "NORAD_CAT_ID": 41885,
    "ELEMENT_SET_NO": 999,
    "REV_AT_EPOCH": 46281,
    "BSTAR": 0.0011856,
    "MEAN_MOTION_DOT": 0.00049993,
    "MEAN_MOTION_DDOT": 0
  }
]
