METEOSAT-10 (MSG-3)     
1 38552U 12035B   25106.74864453  .00000008  00000+0  00000+0 0  9995
2 38552   3.6639  62.0398 0000863 338.6915  74.4916  1.00264742 46582
METOP-B                 
1 38771U 12049A   25106.90196914  .00000505  00000+0  25029-3 0  9995
2 38771  98.5824 162.6148 0001807 120.1737 239.9620 14.21480752652704
INSAT-3D                
1 39216U 13038B   25106.55996993 -.00000329  00000+0  00000+0 0  9998
2 39216   0.8209  88.2702 0001411 272.6818 175.0259  1.00266951 42803
FENGYUN 3C              
1 39260U 13052A   25106.93091530  .00000416  00000+0  23338-3 0  9997
2 39260  98.4529  96.6619 0014912 166.2926 193.8657 14.15607363598327
METEOR-M 2              
1 40069U 14037A   25106.90616577  .00000552  00000+0  27225-3 0  9991
2 40069  98.4660  94.0440 0005491 183.3720 176.7422 14.21274429558764
HIMAWARI-8              
1 40267U 14060A   25106.84777771 -.00000266  00000+0  00000+0 0  9995
2 40267   0.0121 208.9768 0001129 191.6093 250.4953  1.00270807 38472
FENGYUN 2G              
1 40367U 14090A   25106.92530317 -.00000288  00000+0  00000+0 0  9995
2 40367   4.5559  77.9714 0002024 108.5801  91.1812  1.00265674 37728
METEOSAT-11 (MSG-4)     
1 40732U 15034A   25106.89321613  .00000075  00000+0  00000+0 0  9996
2 40732   2.1364  72.2461 0000851 321.8812 142.1460  1.00278835  2942
ELEKTRO-L 2             
1 41105U 15074A   25106.74560372 -.00000104  00000+0  00000+0 0  9990
2 41105   5.6160  75.7577 0002055 242.0366 141.2679  1.00273085 34232
INSAT-3DR               
1 41752U 16054A   25106.69172707 -.00000067  00000+0  00000+0 0  9990
2 41752   0.1326  88.8849 0010771 188.0154 251.1923  1.00273339 31545
HIMAWARI-9              
1 41836U 16064A   25106.91275142 -.00000264  00000+0  00000+0 0  9995
2 41836   0.0271 123.9594 0001372 295.3071 255.3984  1.00272099 31029
GOES 16                 
1 41866U 16071A   25106.87575318 -.00000210  00000+0  00000+0 0  9990
2 41866   0.0598 281.3915 0000889 172.5776 348.1182  1.00132862 30821
CYGFM05                 
1 41884U 16078A   25106.58439451  .00021227  00000+0  53385-3 0  9990
2 41884  34.9599 164.1374 0009206 110.9880 249.1824 15.38977894462650
CYGFM04                 
1 41885U 16078B   25106.80308005  .00049993  00000+0  11856-2 0  9992
2 41885  34.9349 142.9050 0008554 139.5713 220.5643 15.40611561462815
